STARLINK-35573          
1 66116U 25237C   25317.58335648 -.00402966  00000+0 -75601-2 0  9998
2 66116  53.1596 225.1585 0000546 101.0440 354.6868 15.49523936  4791
STARLINK-35572          
1 66117U 25237D   25317.58335648 -.00100543  00000+0 -18211-2 0  9999
2 66117  53.1597 225.1507 0000855 102.4838 357.0854 15.49338691  4790
STARLINK-35468          
1 66118U 25237E   25317.58335648 -.00964453  00000+0 -18722-1 0  9994
2 66118  53.1595 225.1543 0001002  92.8398   4.7593 15.49624712  4795
STARLINK-35547          
1 66119U 25237F   25317.58335648 -.00138812  00000+0 -25247-2 0  9998
2 66119  53.1597 225.1377 0001110 107.0722 358.2546 15.49393543  4793
STARLINK-35553          
1 66120U 25237G   25317.58335648 -.00117290  00000+0 -21296-2 0  9997
2 66120  53.1596 225.1464 0000885 116.0513 345.4319 15.49348980  4798
STARLINK-35631          
1 66121U 25237H   25317.58335648 -.00133731  00000+0 -24336-2 0  9994
2 66121  53.1595 225.1412 0000934 111.5966 351.7997 15.49357201  4796
STARLINK-35653          
1 66122U 25237J   25317.58335648  .00076699  00000+0  13767-2 0  9998
2 66122  53.1598 225.1340 0001099 107.5044 359.7325 15.49245183  4793
STARLINK-35628          
1 66123U 25237K   25317.58335648 -.00094592  00000+0 -17117-2 0  9996
2 66123  53.1599 225.1301 0001064 106.6418   2.5103 15.49336105  4791
STARLINK-35645          
1 66124U 25237L   25317.58335648 -.00364567  00000+0 -67985-2 0  9997
2 66124  53.1600 225.1263 0000797 106.1171   4.9529 15.49553019  4798
STARLINK-35649          
1 66125U 25237M   25317.58335648 -.00390290  00000+0 -73128-2 0  9996
2 66125  53.1597 225.1225 0000464 107.4805   5.4986 15.49514424  4791
STARLINK-35658          
1 66126U 25237N   25317.58335648 -.00102636  00000+0 -18597-2 0  9991
2 66126  53.1600 225.1170 0000845 106.1596   8.7468 15.49339234  4797
STARLINK-35629          
1 66127U 25237P   25317.58335648 -.00051947  00000+0 -93216-3 0  9992
2 66127  53.1598 225.1143 0001192 119.2479 357.5820 15.49308425  4790
