CCSDS_OMM_VERS = 2.0
CREATION_DATE  = 
ORIGINATOR     = 

OBJECT_NAME    = STARLINK-35573
OBJECT_ID      = 2025-237C
CENTER_NAME    = EARTH
REF_FRAME      = TEME
TIME_SYSTEM    = UTC
MEAN_ELEMENT_THEORY = SGP/SGP4

EPOCH          = 2025-11-13T14:00:01.999872
MEAN_MOTION    = 15.49523936
ECCENTRICITY   = .00005466
INCLINATION    = 53.1596
RA_OF_ASC_NODE = 225.1585
ARG_OF_PERICENTER = 101.0440
MEAN_ANOMALY   = 354.6868

EPHEMERIS_TYPE = 0
CLASSIFICATION_TYPE = U
NORAD_CAT_ID   = 66116
ELEMENT_SET_NO = 999
REV_AT_EPOCH   = 479
BSTAR          = -.75600791E-2
MEAN_MOTION_DOT = -.402966E-2
MEAN_MOTION_DDOT = 0

CCSDS_OMM_VERS = 2.0
CREATION_DATE  = 
ORIGINATOR     = 

OBJECT_NAME    = STARLINK-35572
OBJECT_ID      = 2025-237D
CENTER_NAME    = EARTH
REF_FRAME      = TEME
TIME_SYSTEM    = UTC
MEAN_ELEMENT_THEORY = SGP/SGP4

EPOCH          = 2025-11-13T14:00:01.999872
MEAN_MOTION    = 15.49338691
ECCENTRICITY   = .00008555
INCLINATION    = 53.1597
RA_OF_ASC_NODE = 225.1507
ARG_OF_PERICENTER = 102.4838
MEAN_ANOMALY   = 357.0854

EPHEMERIS_TYPE = 0
CLASSIFICATION_TYPE = U
NORAD_CAT_ID   = 66117
ELEMENT_SET_NO = 999
REV_AT_EPOCH   = 479
BSTAR          = -.18211443E-2
MEAN_MOTION_DOT = -.100543E-2
MEAN_MOTION_DDOT = 0

CCSDS_OMM_VERS = 2.0
CREATION_DATE  = 
ORIGINATOR     = 

OBJECT_NAME    = STARLINK-35468
OBJECT_ID      = 2025-237E
CENTER_NAME    = EARTH
REF_FRAME      = TEME
TIME_SYSTEM    = UTC
MEAN_ELEMENT_THEORY = SGP/SGP4

EPOCH          = 2025-11-13T14:00:01.999872
MEAN_MOTION    = 15.49624712
ECCENTRICITY   = .00010028
INCLINATION    = 53.1595
RA_OF_ASC_NODE = 225.1543
ARG_OF_PERICENTER = 92.8398
MEAN_ANOMALY   = 4.7593

EPHEMERIS_TYPE = 0
CLASSIFICATION_TYPE = U
NORAD_CAT_ID   = 66118
ELEMENT_SET_NO = 999
REV_AT_EPOCH   = 479
BSTAR          = -.18722385E-1
MEAN_MOTION_DOT = -.964453E-2
MEAN_MOTION_DDOT = 0

CCSDS_OMM_VERS = 2.0
CREATION_DATE  = 
ORIGINATOR     = 

OBJECT_NAME    = STARLINK-35547
OBJECT_ID      = 2025-237F
CENTER_NAME    = EARTH
REF_FRAME      = TEME
TIME_SYSTEM    = UTC
MEAN_ELEMENT_THEORY = SGP/SGP4

EPOCH          = 2025-11-13T14:00:01.999872
MEAN_MOTION    = 15.49393543
ECCENTRICITY   = .00011101
INCLINATION    = 53.1597
RA_OF_ASC_NODE = 225.1377
ARG_OF_PERICENTER = 107.0722
MEAN_ANOMALY   = 358.2546

EPHEMERIS_TYPE = 0
CLASSIFICATION_TYPE = U
NORAD_CAT_ID   = 66119
ELEMENT_SET_NO = 999
REV_AT_EPOCH   = 479
BSTAR          = -.25247472E-2
MEAN_MOTION_DOT = -.138812E-2
MEAN_MOTION_DDOT = 0

CCSDS_OMM_VERS = 2.0
CREATION_DATE  = 
ORIGINATOR     = 

OBJECT_NAME    = STARLINK-35553
OBJECT_ID      = 2025-237G
CENTER_NAME    = EARTH
REF_FRAME      = TEME
TIME_SYSTEM    = UTC
MEAN_ELEMENT_THEORY = SGP/SGP4

EPOCH          = 2025-11-13T14:00:01.999872
MEAN_MOTION    = 15.49348980
ECCENTRICITY   = .00008855
INCLINATION    = 53.1596
RA_OF_ASC_NODE = 225.1464
ARG_OF_PERICENTER = 116.0513
MEAN_ANOMALY   = 345.4319

EPHEMERIS_TYPE = 0
CLASSIFICATION_TYPE = U
NORAD_CAT_ID   = 66120
ELEMENT_SET_NO = 999
REV_AT_EPOCH   = 479
BSTAR          = -.21295911E-2
MEAN_MOTION_DOT = -.11729E-2
MEAN_MOTION_DDOT = 0

CCSDS_OMM_VERS = 2.0
CREATION_DATE  = 
ORIGINATOR     = 

OBJECT_NAME    = STARLINK-35631
OBJECT_ID      = 2025-237H
CENTER_NAME    = EARTH
REF_FRAME      = TEME
TIME_SYSTEM    = UTC
MEAN_ELEMENT_THEORY = SGP/SGP4

EPOCH          = 2025-11-13T14:00:01.999872
MEAN_MOTION    = 15.49357201
ECCENTRICITY   = .00009344
INCLINATION    = 53.1595
RA_OF_ASC_NODE = 225.1412
ARG_OF_PERICENTER = 111.5966
MEAN_ANOMALY   = 351.7997

EPHEMERIS_TYPE = 0
CLASSIFICATION_TYPE = U
NORAD_CAT_ID   = 66121
ELEMENT_SET_NO = 999
REV_AT_EPOCH   = 479
BSTAR          = -.24336189E-2
MEAN_MOTION_DOT = -.133731E-2
MEAN_MOTION_DDOT = 0

CCSDS_OMM_VERS = 2.0
CREATION_DATE  = 
ORIGINATOR     = 

OBJECT_NAME    = STARLINK-35653
OBJECT_ID      = 2025-237J
CENTER_NAME    = EARTH
REF_FRAME      = TEME
TIME_SYSTEM    = UTC
MEAN_ELEMENT_THEORY = SGP/SGP4

EPOCH          = 2025-11-13T14:00:01.999872
MEAN_MOTION    = 15.49245183
ECCENTRICITY   = .00010995
INCLINATION    = 53.1598
RA_OF_ASC_NODE = 225.1340
ARG_OF_PERICENTER = 107.5044
MEAN_ANOMALY   = 359.7325

EPHEMERIS_TYPE = 0
CLASSIFICATION_TYPE = U
NORAD_CAT_ID   = 66122
ELEMENT_SET_NO = 999
REV_AT_EPOCH   = 479
BSTAR          = .13766791E-2
MEAN_MOTION_DOT = .76699E-3
MEAN_MOTION_DDOT = 0

CCSDS_OMM_VERS = 2.0
CREATION_DATE  = 
ORIGINATOR     = 

OBJECT_NAME    = STARLINK-35628
OBJECT_ID      = 2025-237K
CENTER_NAME    = EARTH
REF_FRAME      = TEME
TIME_SYSTEM    = UTC
MEAN_ELEMENT_THEORY = SGP/SGP4

EPOCH          = 2025-11-13T14:00:01.999872
MEAN_MOTION    = 15.49336105
ECCENTRICITY   = .00010648
INCLINATION    = 53.1599
RA_OF_ASC_NODE = 225.1301
ARG_OF_PERICENTER = 106.6418
MEAN_ANOMALY   = 2.5103

EPHEMERIS_TYPE = 0
CLASSIFICATION_TYPE = U
NORAD_CAT_ID   = 66123
ELEMENT_SET_NO = 999
REV_AT_EPOCH   = 479
BSTAR          = -.17117074E-2
MEAN_MOTION_DOT = -.94592E-3
MEAN_MOTION_DDOT = 0

CCSDS_OMM_VERS = 2.0
CREATION_DATE  = 
ORIGINATOR     = 

OBJECT_NAME    = STARLINK-35645
OBJECT_ID      = 2025-237L
CENTER_NAME    = EARTH
REF_FRAME      = TEME
TIME_SYSTEM    = UTC
MEAN_ELEMENT_THEORY = SGP/SGP4

EPOCH          = 2025-11-13T14:00:01.999872
MEAN_MOTION    = 15.49553019
ECCENTRICITY   = .00007971
INCLINATION    = 53.1600
RA_OF_ASC_NODE = 225.1263
ARG_OF_PERICENTER = 106.1171
MEAN_ANOMALY   = 4.9529

EPHEMERIS_TYPE = 0
CLASSIFICATION_TYPE = U
NORAD_CAT_ID   = 66124
ELEMENT_SET_NO = 999
REV_AT_EPOCH   = 479
BSTAR          = -.67985419E-2
MEAN_MOTION_DOT = -.364567E-2
MEAN_MOTION_DDOT = 0

CCSDS_OMM_VERS = 2.0
CREATION_DATE  = 
ORIGINATOR     = 

OBJECT_NAME    = STARLINK-35649
OBJECT_ID      = 2025-237M
CENTER_NAME    = EARTH
REF_FRAME      = TEME
TIME_SYSTEM    = UTC
MEAN_ELEMENT_THEORY = SGP/SGP4

EPOCH          = 2025-11-13T14:00:01.999872
MEAN_MOTION    = 15.49514424
ECCENTRICITY   = .00004645
INCLINATION    = 53.1597
RA_OF_ASC_NODE = 225.1225
ARG_OF_PERICENTER = 107.4805
MEAN_ANOMALY   = 5.4986

EPHEMERIS_TYPE = 0
CLASSIFICATION_TYPE = U
NORAD_CAT_ID   = 66125
ELEMENT_SET_NO = 999
REV_AT_EPOCH   = 479
BSTAR          = -.73128149E-2
MEAN_MOTION_DOT = -.39029E-2
MEAN_MOTION_DDOT = 0

CCSDS_OMM_VERS = 2.0
CREATION_DATE  = 
ORIGINATOR     = 

OBJECT_NAME    = STARLINK-35658
OBJECT_ID      = 2025-237N
CENTER_NAME    = EARTH
REF_FRAME      = TEME
TIME_SYSTEM    = UTC
MEAN_ELEMENT_THEORY = SGP/SGP4

EPOCH          = 2025-11-13T14:00:01.999872
MEAN_MOTION    = 15.49339234
ECCENTRICITY   = .0000845
INCLINATION    = 53.1600
RA_OF_ASC_NODE = 225.1170
ARG_OF_PERICENTER = 106.1596
MEAN_ANOMALY   = 8.7468

EPHEMERIS_TYPE = 0
CLASSIFICATION_TYPE = U
NORAD_CAT_ID   = 66126
ELEMENT_SET_NO = 999
REV_AT_EPOCH   = 479
BSTAR          = -.18596847E-2
MEAN_MOTION_DOT = -.102636E-2
MEAN_MOTION_DDOT = 0

CCSDS_OMM_VERS = 2.0
CREATION_DATE  = 
ORIGINATOR     = 

OBJECT_NAME    = STARLINK-35629
OBJECT_ID      = 2025-237P
CENTER_NAME    = EARTH
REF_FRAME      = TEME
TIME_SYSTEM    = UTC
MEAN_ELEMENT_THEORY = SGP/SGP4

EPOCH          = 2025-11-13T14:00:01.999872
MEAN_MOTION    = 15.49308425
ECCENTRICITY   = .00011922
INCLINATION    = 53.1598
RA_OF_ASC_NODE = 225.1143
ARG_OF_PERICENTER = 119.2479
MEAN_ANOMALY   = 357.5820

EPHEMERIS_TYPE = 0
CLASSIFICATION_TYPE = U
NORAD_CAT_ID   = 66127
ELEMENT_SET_NO = 999
REV_AT_EPOCH   = 479
BSTAR          = -.93216233E-3
MEAN_MOTION_DOT = -.51947E-3
MEAN_MOTION_DDOT = 0

